start=new Date('2022-04-17T00:00:00.000Z').valueOf();
sats=[{"MEAN_ANOMALY":"295.3978","ELEMENT_SET_NO":"999","LAUNCH_DATE":"2020-10-06","TLE_LINE1":"1 46558U 20070AC  22106.92178753 -.00000726  00000-0 -29857-4 0  9992","RCS_SIZE":"LARGE","OBJECT_NAME":"STARLINK-1680","ARG_OF_PERICENTER":"64.7192","CENTER_NAME":"EARTH","MEAN_MOTION_DDOT":"0.0000000000000","REF_FRAME":"TEME","EPHEMERIS_TYPE":"0","DECAY_DATE":null,"OBJECT_ID":"2020-070AC","COUNTRY_CODE":"US","MEAN_MOTION":"15.06388870","MEAN_MOTION_DOT":"-0.00000726","NORAD_CAT_ID":"46558","MEAN_ELEMENT_THEORY":"SGP4","SEMIMAJOR_AXIS":"6925.383","REV_AT_EPOCH":"8524","EPOCH":"2022-04-16T22:07:22.442592","RA_OF_ASC_NODE":"68.6589","INCLINATION":"53.0535","CLASSIFICATION_TYPE":"U","GP_ID":"201420996","ECCENTRICITY":"0.00017510","PERIAPSIS":"546.035","TIME_SYSTEM":"UTC","OBJECT_TYPE":"PAYLOAD","TLE_LINE2":"2 46558  53.0535  68.6589 0001751  64.7192 295.3978 15.06388870 85244","SITE":"AFETR","PERIOD":"95.593","APOAPSIS":"548.460","BSTAR":"-0.00002985700000","FILE":"3404767"},{"SITE":"AFETR","PERIOD":"95.592","APOAPSIS":"548.414","BSTAR":"0.00005296600000","FILE":"3404767","ECCENTRICITY":"0.00017190","PERIAPSIS":"546.033","TIME_SYSTEM":"UTC","OBJECT_TYPE":"PAYLOAD","TLE_LINE2":"2 46559  53.0555  54.0178 0001719  66.1329 293.9840 15.06396774 85460","INCLINATION":"53.0555","CLASSIFICATION_TYPE":"U","RA_OF_ASC_NODE":"54.0178","GP_ID":"201419247","MEAN_ELEMENT_THEORY":"SGP4","SEMIMAJOR_AXIS":"6925.358","REV_AT_EPOCH":"8546","EPOCH":"2022-04-16T20:15:14.549760","MEAN_MOTION":"15.06396774","COUNTRY_CODE":"US","MEAN_MOTION_DOT":"0.00000507","NORAD_CAT_ID":"46559","EPHEMERIS_TYPE":"0","DECAY_DATE":null,"OBJECT_ID":"2020-070AD","RCS_SIZE":"LARGE","OBJECT_NAME":"STARLINK-1681","ARG_OF_PERICENTER":"66.1329","CENTER_NAME":"EARTH","MEAN_MOTION_DDOT":"0.0000000000000","REF_FRAME":"TEME","MEAN_ANOMALY":"293.9840","ELEMENT_SET_NO":"999","LAUNCH_DATE":"2020-10-06","TLE_LINE1":"1 46559U 20070AD  22106.84391840  .00000507  00000-0  52966-4 0  9990"},{"MEAN_MOTION_DDOT":"0.0000000000000","CENTER_NAME":"EARTH","REF_FRAME":"TEME","RCS_SIZE":"LARGE","ARG_OF_PERICENTER":"61.3598","OBJECT_NAME":"STARLINK-1706","TLE_LINE1":"1 46560U 20070AE  22106.93654092 -.00001210  00000-0 -62384-4 0  9992","LAUNCH_DATE":"2020-10-06","ELEMENT_SET_NO":"999","MEAN_ANOMALY":"298.7566","MEAN_MOTION_DOT":"-0.00001210","NORAD_CAT_ID":"46560","MEAN_MOTION":"15.06380568","COUNTRY_CODE":"US","DECAY_DATE":null,"OBJECT_ID":"2020-070AE","EPHEMERIS_TYPE":"0","CLASSIFICATION_TYPE":"U","RA_OF_ASC_NODE":"68.5965","INCLINATION":"53.0549","GP_ID":"201419998","SEMIMAJOR_AXIS":"6925.408","EPOCH":"2022-04-16T22:28:37.135488","REV_AT_EPOCH":"8527","MEAN_ELEMENT_THEORY":"SGP4","FILE":"3404767","SITE":"AFETR","BSTAR":"-0.00006238400000","APOAPSIS":"548.477","PERIOD":"95.593","PERIAPSIS":"546.069","TIME_SYSTEM":"UTC","TLE_LINE2":"2 46560  53.0549  68.5965 0001738  61.3598 298.7566 15.06380568 85276","OBJECT_TYPE":"PAYLOAD","ECCENTRICITY":"0.00017380"},{"INCLINATION":"53.0553","RA_OF_ASC_NODE":"68.8486","CLASSIFICATION_TYPE":"U","GP_ID":"201420249","SEMIMAJOR_AXIS":"6925.355","EPOCH":"2022-04-16T21:14:17.345472","REV_AT_EPOCH":"8526","MEAN_ELEMENT_THEORY":"SGP4","FILE":"3404767","SITE":"AFETR","BSTAR":"0.00012677000000","APOAPSIS":"548.345","PERIOD":"95.592","TIME_SYSTEM":"UTC","PERIAPSIS":"546.095","TLE_LINE2":"2 46561  53.0553  68.8486 0001625  57.4177 302.6969 15.06397929 85267","OBJECT_TYPE":"PAYLOAD","ECCENTRICITY":"0.00016250","MEAN_MOTION_DDOT":"0.0000000000000","CENTER_NAME":"EARTH","REF_FRAME":"TEME","RCS_SIZE":"LARGE","ARG_OF_PERICENTER":"57.4177","OBJECT_NAME":"STARLINK-1709","TLE_LINE1":"1 46561U 20070AF  22106.88492298  .00001607  00000-0  12677-3 0  9992","ELEMENT_SET_NO":"999","LAUNCH_DATE":"2020-10-06","MEAN_ANOMALY":"302.6969","MEAN_MOTION_DOT":"0.00001607","NORAD_CAT_ID":"46561","MEAN_MOTION":"15.06397929","COUNTRY_CODE":"US","DECAY_DATE":null,"OBJECT_ID":"2020-070AF","EPHEMERIS_TYPE":"0"},{"APOAPSIS":"548.527","PERIOD":"95.593","BSTAR":"-0.00028674000000","SITE":"AFETR","FILE":"3404767","ECCENTRICITY":"0.00018190","OBJECT_TYPE":"PAYLOAD","TLE_LINE2":"2 46562  53.0567  63.8364 0001819  71.9325 288.1862 15.06382480 85338","PERIAPSIS":"546.008","TIME_SYSTEM":"UTC","GP_ID":"201420496","INCLINATION":"53.0567","CLASSIFICATION_TYPE":"U","RA_OF_ASC_NODE":"63.8364","MEAN_ELEMENT_THEORY":"SGP4","EPOCH":"2022-04-16T21:17:36.307392","REV_AT_EPOCH":"8533","SEMIMAJOR_AXIS":"6925.402","MEAN_MOTION":"15.06382480","COUNTRY_CODE":"US","NORAD_CAT_ID":"46562","MEAN_MOTION_DOT":"-0.00004548","EPHEMERIS_TYPE":"0","OBJECT_ID":"2020-070AG","DECAY_DATE":null,"OBJECT_NAME":"STARLINK-1714","ARG_OF_PERICENTER":"71.9325","RCS_SIZE":"LARGE","REF_FRAME":"TEME","CENTER_NAME":"EARTH","MEAN_MOTION_DDOT":"0.0000000000000","MEAN_ANOMALY":"288.1862","LAUNCH_DATE":"2020-10-06","ELEMENT_SET_NO":"999","TLE_LINE1":"1 46562U 20070AG  22106.88722578 -.00004548  00000-0 -28674-3 0  9993"},{"SITE":"AFETR","APOAPSIS":"548.887","PERIOD":"95.593","BSTAR":"-0.00041488000000","FILE":"3404671","ECCENTRICITY":"0.00023840","TIME_SYSTEM":"UTC","PERIAPSIS":"545.585","OBJECT_TYPE":"PAYLOAD","TLE_LINE2":"2 46563  53.0555  63.9077 0002384  60.6361 299.4866 15.06392818 85347","RA_OF_ASC_NODE":"63.9077","CLASSIFICATION_TYPE":"U","INCLINATION":"53.0555","GP_ID":"201396638","MEAN_ELEMENT_THEORY":"SGP4","SEMIMAJOR_AXIS":"6925.371","REV_AT_EPOCH":"8534","EPOCH":"2022-04-16T20:51:04.339008","COUNTRY_CODE":"US","MEAN_MOTION":"15.06392818","MEAN_MOTION_DOT":"-0.00006455","NORAD_CAT_ID":"46563","EPHEMERIS_TYPE":"0","DECAY_DATE":null,"OBJECT_ID":"2020-070AH","RCS_SIZE":"LARGE","OBJECT_NAME":"STARLINK-1730","ARG_OF_PERICENTER":"60.6361","CENTER_NAME":"EARTH","MEAN_MOTION_DDOT":"0.0000000000000","REF_FRAME":"TEME","MEAN_ANOMALY":"299.4866","LAUNCH_DATE":"2020-10-06","ELEMENT_SET_NO":"999","TLE_LINE1":"1 46563U 20070AH  22106.86880022 -.00006455  00000-0 -41488-3 0  9998"},{"BSTAR":"-0.00018014000000","PERIOD":"95.594","APOAPSIS":"548.210","SITE":"AFETR","FILE":"3404674","ECCENTRICITY":"0.00013430","TLE_LINE2":"2 46564  53.0533  63.6953 0001343  75.0968 285.0170 15.06378511 85355","OBJECT_TYPE":"PAYLOAD","TIME_SYSTEM":"UTC","PERIAPSIS":"546.349","GP_ID":"201396680","INCLINATION":"53.0533","RA_OF_ASC_NODE":"63.6953","CLASSIFICATION_TYPE":"U","MEAN_ELEMENT_THEORY":"SGP4","REV_AT_EPOCH":"8535","EPOCH":"2022-04-16T22:00:04.581216","SEMIMAJOR_AXIS":"6925.414","MEAN_MOTION":"15.06378511","COUNTRY_CODE":"US","NORAD_CAT_ID":"46564","MEAN_MOTION_DOT":"-0.00002962","EPHEMERIS_TYPE":"0","OBJECT_ID":"2020-070AJ","DECAY_DATE":null,"ARG_OF_PERICENTER":"75.0968","OBJECT_NAME":"STARLINK-1733","RCS_SIZE":"LARGE","REF_FRAME":"TEME","MEAN_MOTION_DDOT":"0.0000000000000","CENTER_NAME":"EARTH","ELEMENT_SET_NO":"999","LAUNCH_DATE":"2020-10-06","MEAN_ANOMALY":"285.0170","TLE_LINE1":"1 46564U 20070AJ  22106.91671969 -.00002962  00000-0 -18014-3 0  9991"},{"LAUNCH_DATE":"2020-10-06","ELEMENT_SET_NO":"999","MEAN_ANOMALY":"298.1167","TLE_LINE1":"1 46565U 20070AK  22106.36382736  .00000842  00000-0  75387-4 0  9992","ARG_OF_PERICENTER":"62.0021","OBJECT_NAME":"STARLINK-1735","RCS_SIZE":"LARGE","REF_FRAME":"TEME","MEAN_MOTION_DDOT":"0.0000000000000","CENTER_NAME":"EARTH","EPHEMERIS_TYPE":"0","OBJECT_ID":"2020-070AK","DECAY_DATE":null,"MEAN_MOTION":"15.06406217","COUNTRY_CODE":"US","NORAD_CAT_ID":"46565","MEAN_MOTION_DOT":"0.00000842","MEAN_ELEMENT_THEORY":"SGP4","REV_AT_EPOCH":"8525","EPOCH":"2022-04-16T08:43:54.683904","SEMIMAJOR_AXIS":"6925.330","GP_ID":"201384350","INCLINATION":"53.0566","RA_OF_ASC_NODE":"66.1835","CLASSIFICATION_TYPE":"U","ECCENTRICITY":"0.00019680","TLE_LINE2":"2 46565  53.0566  66.1835 0001968  62.0021 298.1167 15.06406217 85253","OBJECT_TYPE":"PAYLOAD","TIME_SYSTEM":"UTC","PERIAPSIS":"545.832","BSTAR":"0.00007538700000","PERIOD":"95.592","APOAPSIS":"548.557","SITE":"AFETR","FILE":"3404318"},{"EPOCH":"2022-04-16T21:06:59.440896","REV_AT_EPOCH":"8501","SEMIMAJOR_AXIS":"6925.360","MEAN_ELEMENT_THEORY":"SGP4","GP_ID":"201396691","CLASSIFICATION_TYPE":"U","INCLINATION":"53.0538","RA_OF_ASC_NODE":"63.8494","TLE_LINE2":"2 46566  53.0538  63.8494 0001764  48.8158 311.2983 15.06396428 85014","OBJECT_TYPE":"PAYLOAD","TIME_SYSTEM":"UTC","PERIAPSIS":"546.003","ECCENTRICITY":"0.00017640","FILE":"3404675","BSTAR":"0.00001767600000","PERIOD":"95.592","APOAPSIS":"548.446","SITE":"AFETR","TLE_LINE1":"1 46566U 20070AL  22106.87985464 -.00000018  00000-0  17676-4 0  9999","LAUNCH_DATE":"2020-10-06","ELEMENT_SET_NO":"999","MEAN_ANOMALY":"311.2983","REF_FRAME":"TEME","MEAN_MOTION_DDOT":"0.0000000000000","CENTER_NAME":"EARTH","ARG_OF_PERICENTER":"48.8158","OBJECT_NAME":"STARLINK-1740","RCS_SIZE":"LARGE","OBJECT_ID":"2020-070AL","DECAY_DATE":null,"EPHEMERIS_TYPE":"0","NORAD_CAT_ID":"46566","MEAN_MOTION_DOT":"-0.00000018","MEAN_MOTION":"15.06396428","COUNTRY_CODE":"US"},{"LAUNCH_DATE":"2020-10-06","ELEMENT_SET_NO":"999","MEAN_ANOMALY":"290.9709","TLE_LINE1":"1 46567U 20070AM  22106.90933662  .00000696  00000-0  65603-4 0  9991","ARG_OF_PERICENTER":"69.1454","OBJECT_NAME":"STARLINK-1741","RCS_SIZE":"LARGE","REF_FRAME":"TEME","MEAN_MOTION_DDOT":"0.0000000000000","CENTER_NAME":"EARTH","EPHEMERIS_TYPE":"0","OBJECT_ID":"2020-070AM","DECAY_DATE":null,"COUNTRY_CODE":"US","MEAN_MOTION":"15.06395009","NORAD_CAT_ID":"46567","MEAN_MOTION_DOT":"0.00000696","MEAN_ELEMENT_THEORY":"SGP4","REV_AT_EPOCH":"8534","EPOCH":"2022-04-16T21:49:26.683968","SEMIMAJOR_AXIS":"6925.364","GP_ID":"201419248","CLASSIFICATION_TYPE":"U","RA_OF_ASC_NODE":"63.7300","INCLINATION":"53.0543","ECCENTRICITY":"0.00016280","TLE_LINE2":"2 46567  53.0543  63.7300 0001628  69.1454 290.9709 15.06395009 85349","OBJECT_TYPE":"PAYLOAD","PERIAPSIS":"546.101","TIME_SYSTEM":"UTC","BSTAR":"0.00006560300000","PERIOD":"95.592","APOAPSIS":"548.356","SITE":"AFETR","FILE":"3404767"}];
